[{"OBJECT_NAME":"APRIZESAT 2","OBJECT_ID":"2004-025A","EPOCH":"2026-03-03T10:51:15.746976","MEAN_MOTION":14.37982562,"ECCENTRICITY":0.01050935,"INCLINATION":98.09,"RA_OF_ASC_NODE":234.4727,"ARG_OF_PERICENTER":208.7171,"MEAN_ANOMALY":150.8207,"EPHEMERIS_TYPE":0,"CLASSIFICATION_TYPE":"U","NORAD_CAT_ID":28366,"ELEMENT_SET_NO":999,"REV_AT_EPOCH":13644,"BSTAR":0.00014991485,"MEAN_MOTION_DOT":4.4e-6,"MEAN_MOTION_DDOT":0},{"OBJECT_NAME":"SAUDICOMSAT 1","OBJECT_ID":"2004-025D","EPOCH":"2026-03-03T13:20:55.747392","MEAN_MOTION":14.55380224,"ECCENTRICITY":0.0031945,"INCLINATION":98.5808,"RA_OF_ASC_NODE":69.8252,"ARG_OF_PERICENTER":349.2906,"MEAN_ANOMALY":10.7606,"EPHEMERIS_TYPE":0,"CLASSIFICATION_TYPE":"U","NORAD_CAT_ID":28369,"ELEMENT_SET_NO":999,"REV_AT_EPOCH":14876,"BSTAR":0.00016822,"MEAN_MOTION_DOT":6.85e-6,"MEAN_MOTION_DDOT":0},{"OBJECT_NAME":"SAUDICOMSAT 2","OBJECT_ID":"2004-025E","EPOCH":"2026-03-03T13:01:25.265856","MEAN_MOTION":14.49903433,"ECCENTRICITY":0.005489,"INCLINATION":98.6685,"RA_OF_ASC_NODE":71.7859,"ARG_OF_PERICENTER":218.6992,"MEAN_ANOMALY":141.0263,"EPHEMERIS_TYPE":0,"CLASSIFICATION_TYPE":"U","NORAD_CAT_ID":28370,"ELEMENT_SET_NO":999,"REV_AT_EPOCH":14479,"BSTAR":0.00012309,"MEAN_MOTION_DOT":4.35e-6,"MEAN_MOTION_DDOT":0},{"OBJECT_NAME":"APRIZESAT 1","OBJECT_ID":"2004-025G","EPOCH":"2026-03-03T11:57:55.146816","MEAN_MOTION":14.51709216,"ECCENTRICITY":0.00457512,"INCLINATION":98.6344,"RA_OF_ASC_NODE":70.3304,"ARG_OF_PERICENTER":115.9551,"MEAN_ANOMALY":244.6368,"EPHEMERIS_TYPE":0,"CLASSIFICATION_TYPE":"U","NORAD_CAT_ID":28372,"ELEMENT_SET_NO":999,"REV_AT_EPOCH":14657,"BSTAR":0.00010973051,"MEAN_MOTION_DOT":3.97e-6,"MEAN_MOTION_DDOT":0},{"OBJECT_NAME":"NANOSAT-1","OBJECT_ID":"2004-049B","EPOCH":"2026-03-03T08:45:37.393632","MEAN_MOTION":14.79896384,"ECCENTRICITY":0.00028149,"INCLINATION":98.2087,"RA_OF_ASC_NODE":196.5621,"ARG_OF_PERICENTER":273.2384,"MEAN_ANOMALY":86.8505,"EPHEMERIS_TYPE":0,"CLASSIFICATION_TYPE":"U","NORAD_CAT_ID":28493,"ELEMENT_SET_NO":999,"REV_AT_EPOCH":13979,"BSTAR":0.00025396345,"MEAN_MOTION_DOT":1.861e-5,"MEAN_MOTION_DDOT":0},{"OBJECT_NAME":"SAUDICOMSAT 7","OBJECT_ID":"2007-012C","EPOCH":"2026-03-03T09:23:46.304160","MEAN_MOTION":14.65958548,"ECCENTRICITY":0.00560558,"INCLINATION":98.3668,"RA_OF_ASC_NODE":34.4339,"ARG_OF_PERICENTER":166.7364,"MEAN_ANOMALY":193.5328,"EPHEMERIS_TYPE":0,"CLASSIFICATION_TYPE":"U","NORAD_CAT_ID":31119,"ELEMENT_SET_NO":999,"REV_AT_EPOCH":693,"BSTAR":0.00016860338,"MEAN_MOTION_DOT":8.91e-6,"MEAN_MOTION_DDOT":0},{"OBJECT_NAME":"SAUDICOMSAT 6","OBJECT_ID":"2007-012E","EPOCH":"2026-03-03T17:28:30.921888","MEAN_MOTION":14.62418541,"ECCENTRICITY":0.0070803,"INCLINATION":98.3979,"RA_OF_ASC_NODE":28.3662,"ARG_OF_PERICENTER":295.7063,"MEAN_ANOMALY":63.6839,"EPHEMERIS_TYPE":0,"CLASSIFICATION_TYPE":"U","NORAD_CAT_ID":31121,"ELEMENT_SET_NO":999,"REV_AT_EPOCH":477,"BSTAR":0.00022627,"MEAN_MOTION_DOT":1.132e-5,"MEAN_MOTION_DDOT":0},{"OBJECT_NAME":"SAUDICOMSAT 5","OBJECT_ID":"2007-012H","EPOCH":"2026-03-03T20:27:56.106144","MEAN_MOTION":14.67988157,"ECCENTRICITY":0.0048839,"INCLINATION":98.3382,"RA_OF_ASC_NODE":35.6713,"ARG_OF_PERICENTER":96.8024,"MEAN_ANOMALY":263.8741,"EPHEMERIS_TYPE":0,"CLASSIFICATION_TYPE":"U","NORAD_CAT_ID":31124,"ELEMENT_SET_NO":999,"REV_AT_EPOCH":814,"BSTAR":0.00021225,"MEAN_MOTION_DOT":1.185e-5,"MEAN_MOTION_DDOT":0},{"OBJECT_NAME":"SAUDICOMSAT 3","OBJECT_ID":"2007-012J","EPOCH":"2026-03-03T10:48:10.935648","MEAN_MOTION":14.70504211,"ECCENTRICITY":0.00399901,"INCLINATION":98.3038,"RA_OF_ASC_NODE":35.8217,"ARG_OF_PERICENTER":28.0966,"MEAN_ANOMALY":332.2387,"EPHEMERIS_TYPE":0,"CLASSIFICATION_TYPE":"U","NORAD_CAT_ID":31125,"ELEMENT_SET_NO":999,"REV_AT_EPOCH":928,"BSTAR":0.0002711482,"MEAN_MOTION_DOT":1.611e-5,"MEAN_MOTION_DDOT":0},{"OBJECT_NAME":"SAUDICOMSAT 4","OBJECT_ID":"2007-012L","EPOCH":"2026-03-03T09:16:18.729696","MEAN_MOTION":14.64366766,"ECCENTRICITY":0.00625225,"INCLINATION":98.3871,"RA_OF_ASC_NODE":32.88,"ARG_OF_PERICENTER":228.2381,"MEAN_ANOMALY":131.3467,"EPHEMERIS_TYPE":0,"CLASSIFICATION_TYPE":"U","NORAD_CAT_ID":31127,"ELEMENT_SET_NO":999,"REV_AT_EPOCH":580,"BSTAR":0.00017278202,"MEAN_MOTION_DOT":8.85e-6,"MEAN_MOTION_DDOT":0},{"OBJECT_NAME":"APRIZESAT 4","OBJECT_ID":"2009-041D","EPOCH":"2026-03-03T17:17:00.381984","MEAN_MOTION":14.83694957,"ECCENTRICITY":0.0042289,"INCLINATION":98.1498,"RA_OF_ASC_NODE":135.9195,"ARG_OF_PERICENTER":304.6266,"MEAN_ANOMALY":55.0963,"EPHEMERIS_TYPE":0,"CLASSIFICATION_TYPE":"U","NORAD_CAT_ID":35684,"ELEMENT_SET_NO":999,"REV_AT_EPOCH":89572,"BSTAR":0.00014437,"MEAN_MOTION_DOT":1.152e-5,"MEAN_MOTION_DDOT":0},{"OBJECT_NAME":"APRIZESAT 3","OBJECT_ID":"2009-041F","EPOCH":"2026-03-03T08:33:31.487616","MEAN_MOTION":14.95868124,"ECCENTRICITY":0.00632282,"INCLINATION":98.1883,"RA_OF_ASC_NODE":210.6317,"ARG_OF_PERICENTER":57.4098,"MEAN_ANOMALY":303.3204,"EPHEMERIS_TYPE":0,"CLASSIFICATION_TYPE":"U","NORAD_CAT_ID":35686,"ELEMENT_SET_NO":999,"REV_AT_EPOCH":90055,"BSTAR":0.00026517269,"MEAN_MOTION_DOT":3.018e-5,"MEAN_MOTION_DDOT":0},{"OBJECT_NAME":"S-NET D","OBJECT_ID":"2018-014G","EPOCH":"2026-03-03T17:34:39.278784","MEAN_MOTION":15.15532171,"ECCENTRICITY":0.0009486,"INCLINATION":97.5448,"RA_OF_ASC_NODE":328.2209,"ARG_OF_PERICENTER":33.9443,"MEAN_ANOMALY":326.2394,"EPHEMERIS_TYPE":0,"CLASSIFICATION_TYPE":"U","NORAD_CAT_ID":43186,"ELEMENT_SET_NO":999,"REV_AT_EPOCH":44278,"BSTAR":0.00044814,"MEAN_MOTION_DOT":8.439e-5,"MEAN_MOTION_DDOT":0},{"OBJECT_NAME":"S-NET B","OBJECT_ID":"2018-014H","EPOCH":"2026-03-03T16:13:11.007840","MEAN_MOTION":15.15502968,"ECCENTRICITY":0.0009952,"INCLINATION":97.5455,"RA_OF_ASC_NODE":328.1481,"ARG_OF_PERICENTER":29.1842,"MEAN_ANOMALY":330.9945,"EPHEMERIS_TYPE":0,"CLASSIFICATION_TYPE":"U","NORAD_CAT_ID":43187,"ELEMENT_SET_NO":999,"REV_AT_EPOCH":44277,"BSTAR":0.00045932,"MEAN_MOTION_DOT":8.646e-5,"MEAN_MOTION_DDOT":0},{"OBJECT_NAME":"S-NET A","OBJECT_ID":"2018-014J","EPOCH":"2026-03-03T17:33:45.129312","MEAN_MOTION":15.15538717,"ECCENTRICITY":0.0009903,"INCLINATION":97.5465,"RA_OF_ASC_NODE":328.3934,"ARG_OF_PERICENTER":30.1926,"MEAN_ANOMALY":329.9875,"EPHEMERIS_TYPE":0,"CLASSIFICATION_TYPE":"U","NORAD_CAT_ID":43188,"ELEMENT_SET_NO":999,"REV_AT_EPOCH":44278,"BSTAR":0.00044524,"MEAN_MOTION_DOT":8.387e-5,"MEAN_MOTION_DDOT":0},{"OBJECT_NAME":"S-NET C","OBJECT_ID":"2018-014K","EPOCH":"2026-03-03T16:17:57.572448","MEAN_MOTION":15.15495189,"ECCENTRICITY":0.0011067,"INCLINATION":97.5478,"RA_OF_ASC_NODE":328.3992,"ARG_OF_PERICENTER":21.8475,"MEAN_ANOMALY":338.3227,"EPHEMERIS_TYPE":0,"CLASSIFICATION_TYPE":"U","NORAD_CAT_ID":43189,"ELEMENT_SET_NO":999,"REV_AT_EPOCH":44132,"BSTAR":0.00046261,"MEAN_MOTION_DOT":8.708e-5,"MEAN_MOTION_DDOT":0},{"OBJECT_NAME":"SALSAT","OBJECT_ID":"2020-068K","EPOCH":"2026-03-03T18:42:46.219104","MEAN_MOTION":15.28039347,"ECCENTRICITY":0.0008731,"INCLINATION":97.8847,"RA_OF_ASC_NODE":59.5668,"ARG_OF_PERICENTER":321.6728,"MEAN_ANOMALY":38.3888,"EPHEMERIS_TYPE":0,"CLASSIFICATION_TYPE":"U","NORAD_CAT_ID":46495,"ELEMENT_SET_NO":999,"REV_AT_EPOCH":29925,"BSTAR":0.00046597,"MEAN_MOTION_DOT":0.00012684,"MEAN_MOTION_DDOT":0}]
